MEAN_MOTION;ECCENTRICITY;INCLINATION;RA_OF_ASC_NODE;ARG_OF_PERICENTER;MEAN_ANOMALY;BSTAR;MEAN_MOTION_DOT;MEAN_MOTION_DDOT;TYPE
14.34218312;0.0002002;86.3944;116.0108;96.8246;263.3177;1.6108E-5;6.5E-7;0;Iridium
14.34215861;0.0001934;86.3944;115.6901;96.6172;263.5244;1.8385E-5;7.1E-7;0;Iridium
14.3421558;0.0001948;86.3943;115.6608;96.3871;263.7546;1.821E-5;7.1E-7;0;Iridium
14.34215542;0.0001993;86.3942;115.2523;97.564;262.5782;8.129E-6;4.3E-7;0;Iridium
14.34215536;0.0001994;86.3941;115.223;97.5251;262.6171;8.1011E-6;4.2E-7;0;Iridium
14.34215594;0.000201;86.394;114.8729;97.8533;262.2891;9.9511E-6;4.8E-7;0;Iridium
14.34215599;0.0002013;86.394;114.7853;97.8243;262.3181;9.466E-6;4.6E-7;0;Iridium
14.34215651;0.0002027;86.3938;114.4351;97.9885;262.1541;1.0422E-5;4.9E-7;0;Iridium
14.34215786;0.0002048;86.3937;114.0265;98.3591;261.7837;1.6073E-5;6.5E-7;0;Iridium
14.3421614;0.0002075;86.3937;113.5887;98.5352;261.6079;2.6545E-5;9.4E-7;0;Iridium
14.34216242;0.0002075;86.3937;113.4428;98.1595;261.9836;2.9001E-5;1.01E-6;0;Iridium
14.34216373;0.0002077;86.3936;113.1802;98.3924;261.7507;2.8421E-5;9.9E-7;0;Iridium
14.34216452;0.0002079;86.3935;113.0343;98.1319;262.0112;2.9211E-5;1.02E-6;0;Iridium
14.34216557;0.0002091;86.3934;112.6255;98.1701;261.9732;2.4561E-5;8.9E-7;0;Iridium
14.34216614;0.0002091;86.3933;112.3337;98.2193;261.924;2.1336E-5;8.0E-7;0;Iridium
14.34216613;0.0002098;86.3932;112.2461;98.2085;261.9349;1.9982E-5;7.6E-7;0;Iridium
14.34216643;0.0002105;86.3932;111.925;98.5886;261.5548;1.3188E-5;5.7E-7;0;Iridium
14.34216635;0.0002116;86.3931;111.7791;98.7233;261.4202;1.017E-5;4.8E-7;0;Iridium
14.34216767;0.0002123;86.3931;111.5163;98.9033;261.2403;1.6108E-5;6.5E-7;0;Iridium
14.34216836;0.0002133;86.393;111.3412;98.8958;261.2479;1.8697E-5;7.2E-7;0;Iridium
14.34216928;0.0002143;86.393;111.1077;98.9755;261.1683;2.1809E-5;8.1E-7;0;Iridium
14.34216932;0.0002143;86.393;111.0785;98.9353;261.2086;2.132E-5;7.9E-7;0;Iridium
14.34216982;0.0002151;86.3929;110.9325;98.9295;261.2144;2.3168E-5;8.5E-7;0;Iridium
14.34217039;0.0002159;86.3929;110.6698;98.9281;261.216;2.2231E-5;8.2E-7;0;Iridium
14.34217044;0.000216;86.3929;110.6406;98.912;261.232;2.2132E-5;8.2E-7;0;Iridium
14.34217051;0.0002167;86.3928;110.5239;98.8916;261.2525;2.1173E-5;7.9E-7;0;Iridium
14.34217091;0.0002174;86.3928;110.2612;98.9568;261.1873;1.9956E-5;7.6E-7;0;Iridium
14.34217085;0.0002175;86.3928;110.232;98.9473;261.1969;1.9068E-5;7.3E-7;0;Iridium
14.34217137;0.0002192;86.3927;109.8233;98.9689;261.1755;1.7723E-5;6.9E-7;0;Iridium
14.34217183;0.00022;86.3926;109.6773;98.8994;261.2451;1.9389E-5;7.4E-7;0;Iridium
14.34217237;0.0002209;86.3926;109.4146;98.798;261.3466;1.8911E-5;7.3E-7;0;Iridium
14.34217306;0.0002217;86.3925;109.2394;98.6869;261.4578;2.1161E-5;7.9E-7;0;Iridium
14.34217368;0.0002224;86.3925;109.0059;98.7254;261.4194;2.1444E-5;8.0E-7;0;Iridium
14.34217432;0.0002233;86.3925;108.8599;98.595;261.5499;2.3641E-5;8.6E-7;0;Iridium
14.3421754;0.0002242;86.3925;108.568;98.6293;261.5157;2.4242E-5;8.8E-7;0;Iridium
14.34217573;0.000225;86.3924;108.422;98.6006;261.5444;2.342E-5;8.5E-7;0;Iridium
14.34217663;0.0002259;86.3924;108.1593;98.5214;261.6238;2.3192E-5;8.5E-7;0;Iridium
14.34217701;0.0002269;86.3924;108.0133;98.4435;261.7018;2.3104E-5;8.4E-7;0;Iridium
14.34217717;0.0002276;86.3924;107.7214;98.289;261.8564;1.6897E-5;6.7E-7;0;Iridium
14.34217731;0.0002283;86.3924;107.5754;98.2542;261.8913;1.46E-5;6.1E-7;0;Iridium
14.34217756;0.0002291;86.3924;107.3419;98.1923;261.9533;1.1707E-5;5.3E-7;0;Iridium
14.3421774;0.0002291;86.3924;107.3127;98.1665;261.979;9.273E-6;4.6E-7;0;Iridium
14.3421778;0.0002299;86.3924;107.1667;98.0276;262.1181;1.0813E-5;5.0E-7;0;Iridium
14.3421785;0.0002308;86.3924;106.904;97.9544;262.1913;1.1226E-5;5.1E-7;0;Iridium
14.34217914;0.0002315;86.3924;106.7288;97.8373;262.3085;1.2755E-5;5.6E-7;0;Iridium
14.34217932;0.0002319;86.3924;106.6704;97.8297;262.3162;1.2894E-5;5.6E-7;0;Iridium
14.34217995;0.0002332;86.3924;106.3201;97.5835;262.5626;1.2709E-5;5.5E-7;0;Iridium
14.34218041;0.0002339;86.3925;106.0866;97.4863;262.6598;1.2171E-5;5.4E-7;0;Iridium
14.34218041;0.0002339;86.3925;106.0866;97.4863;262.6598;1.2171E-5;5.4E-7;0;Iridium
14.3421808;0.0002347;86.3925;105.9114;97.3404;262.8059;1.2613E-5;5.5E-7;0;Iridium
14.3421818;0.0002354;86.3925;105.6778;97.3269;262.8195;1.5483E-5;6.3E-7;0;Iridium
14.34218258;0.000237;86.3925;105.2691;97.0916;263.0549;1.6137E-5;6.5E-7;0;Iridium
14.34218317;0.0002379;86.3924;105.0648;96.8752;263.2714;1.7363E-5;6.8E-7;0;Iridium
14.34218324;0.0002387;86.3925;104.8312;96.6529;263.4939;1.6478E-5;6.6E-7;0;Iridium
14.34218357;0.0002391;86.3924;104.6561;96.3838;263.763;1.7115E-5;6.8E-7;0;Iridium
14.34218405;0.0002396;86.3925;104.3933;96.1854;263.9615;1.762E-5;6.9E-7;0;Iridium
14.34218451;0.0002404;86.3924;104.2181;96.1912;263.9558;1.8752E-5;7.2E-7;0;Iridium
14.34218529;0.0002408;86.3925;103.9846;96.0548;264.0922;2.0443E-5;7.7E-7;0;Iridium
14.34218574;0.0002417;86.3925;103.8095;95.9415;264.2056;2.1011E-5;7.9E-7;0;Iridium
14.34218613;0.0002426;86.3926;103.576;95.8502;264.297;2.0527E-5;7.7E-7;0;Iridium
14.34218652;0.0002432;86.3926;103.4008;95.5815;264.5658;2.0501E-5;7.7E-7;0;Iridium
14.34216091;0.0002454;86.3926;103.138;95.2748;264.8728;2.0684E-5;7.8E-7;0;Iridium
14.34216485;0.0002455;86.3925;102.963;95.6391;264.5085;2.8924E-5;1.01E-6;0;Iridium
14.34216432;0.0002459;86.3926;102.7294;95.4328;264.7149;7.7513E-6;4.1E-7;0;Iridium
14.34216438;0.0002466;86.3926;102.5543;95.2277;264.92;7.1909E-6;4.0E-7;0;Iridium
14.34216545;0.0002477;86.3927;102.1456;94.8709;265.2769;1.0349E-5;4.9E-7;0;Iridium
14.34216649;0.0002484;86.3928;101.9121;94.5874;265.5606;1.4979E-5;6.2E-7;0;Iridium
14.34216807;0.0002492;86.3929;101.4743;94.048;266.1001;1.6281E-5;6.5E-7;0;Iridium
14.34216807;0.0002492;86.3929;101.4743;94.048;266.1001;1.6281E-5;6.5E-7;0;Iridium
14.34216858;0.0002496;86.3929;101.2991;93.8706;266.2775;1.593E-5;6.4E-7;0;Iridium
14.3421693;0.0002498;86.393;101.0656;93.6587;266.4895;1.5753E-5;6.4E-7;0;Iridium
14.34216977;0.0002504;86.393;100.8905;93.4846;266.6636;1.5596E-5;6.3E-7;0;Iridium
14.34217048;0.0002505;86.3931;100.657;93.1871;266.9612;1.596E-5;6.4E-7;0;Iridium
14.3421708;0.0002513;86.3931;100.4526;92.9728;267.1756;1.49E-5;6.2E-7;0;Iridium
14.34217139;0.0002517;86.3932;100.2483;93.0059;267.1425;1.6314E-5;6.5E-7;0;Iridium
14.34217197;0.0002522;86.3932;100.044;92.7681;267.3803;1.7055E-5;6.8E-7;0;Iridium
14.34217254;0.0002521;86.3933;99.8105;92.2181;267.9303;1.783E-5;7.0E-7;0;Iridium
14.34217254;0.0002521;86.3933;99.8105;92.2181;267.9303;1.783E-5;7.0E-7;0;Iridium
14.34217299;0.0002524;86.3934;99.6353;92.0441;268.1044;1.8676E-5;7.2E-7;0;Iridium
14.34217369;0.0002531;86.3935;99.3727;92.0784;268.0702;2.0026E-5;7.6E-7;0;Iridium
14.34217369;0.0002531;86.3935;99.3727;92.0784;268.0702;2.0026E-5;7.6E-7;0;Iridium
14.34217483;0.000253;86.3935;98.9933;91.2765;268.8721;2.2437E-5;8.3E-7;0;Iridium
14.34217587;0.000254;86.3936;98.7891;91.4372;268.7115;2.4926E-5;9.0E-7;0;Iridium
14.34217656;0.0002538;86.3936;98.5556;90.998;269.1507;2.6006E-5;9.3E-7;0;Iridium
14.34217656;0.0002538;86.3936;98.5556;90.998;269.1507;2.6006E-5;9.3E-7;0;Iridium
14.34217705;0.0002541;86.3937;98.3805;90.7324;269.4163;2.6007E-5;9.3E-7;0;Iridium
14.34217809;0.0002546;86.3937;98.147;90.6992;269.4495;2.785E-5;9.8E-7;0;Iridium
14.34217867;0.0002549;86.3937;97.9719;90.4618;269.687;2.7892E-5;9.8E-7;0;Iridium
14.34217963;0.0002547;86.3938;97.7384;90.0712;270.0776;2.8703E-5;1.0E-6;0;Iridium
14.34218025;0.0002552;86.3938;97.5341;89.7149;270.4339;2.7433E-5;9.7E-7;0;Iridium
14.34218101;0.0002554;86.3939;97.2716;89.6346;270.5142;2.6852E-5;9.5E-7;0;Iridium
14.34218151;0.0002555;86.3939;97.1257;89.3976;270.7512;2.5911E-5;9.2E-7;0;Iridium
14.34218217;0.0002555;86.394;96.8923;89.2109;270.9379;2.4719E-5;8.9E-7;0;Iridium
14.34218269;0.000256;86.3941;96.688;89.0495;271.0994;2.2881E-5;8.4E-7;0;Iridium
14.34218349;0.0002557;86.3942;96.4838;88.7947;271.3542;2.2982E-5;8.4E-7;0;Iridium
14.34218412;0.0002563;86.3942;96.2796;88.6817;271.4673;2.163E-5;8.0E-7;0;Iridium
14.34218467;0.0002568;86.3943;96.0754;88.4411;271.7079;2.1065E-5;7.9E-7;0;Iridium
14.34218518;0.0002574;86.3944;95.8712;88.1118;272.0372;1.9467E-5;7.4E-7;0;Iridium
14.34218541;0.0002572;86.3945;95.6669;87.7593;272.3897;1.719E-5;6.8E-7;0;Iridium
14.34218589;0.0002579;86.3945;95.4627;87.7479;272.4012;1.6384E-5;6.6E-7;0;Iridium
14.34218643;0.0002571;86.3946;95.2293;87.1736;272.9754;1.558E-5;6.3E-7;0;Iridium
14.34218643;0.0002571;86.3946;95.2293;87.1736;272.9754;1.558E-5;6.3E-7;0;Iridium
14.34218643;0.0002571;86.3946;95.2293;87.1736;272.9754;1.558E-5;6.3E-7;0;Iridium
14.34218693;0.0002572;86.3947;95.0251;86.9647;273.1843;1.5387E-5;6.3E-7;0;Iridium
14.34218738;0.0002569;86.3948;94.8208;86.5295;273.6195;1.5116E-5;6.2E-7;0;Iridium
14.34218796;0.0002572;86.3948;94.6166;86.393;273.756;1.5199E-5;6.2E-7;0;Iridium
14.34218828;0.0002569;86.3949;94.4123;86.0555;274.0934;1.531E-5;6.3E-7;0;Iridium
14.34218885;0.0002571;86.395;94.2081;85.6788;274.4701;1.5748E-5;6.4E-7;0;Iridium
14.34218959;0.0002564;86.3951;93.9747;85.3965;274.7524;1.772E-5;6.9E-7;0;Iridium
14.34218959;0.0002564;86.3951;93.9747;85.3965;274.7524;1.772E-5;6.9E-7;0;Iridium
14.34219015;0.000257;86.3951;93.7705;85.5201;274.6288;1.8531E-5;7.2E-7;0;Iridium
14.34219165;0.0002565;86.3952;93.3329;85.1477;275.0011;2.2239E-5;8.2E-7;0;Iridium
14.34219212;0.000256;86.3953;93.1578;84.947;275.2018;2.318E-5;8.5E-7;0;Iridium
14.34219363;0.0002557;86.3954;92.7203;84.4555;275.6932;2.5462E-5;9.1E-7;0;Iridium
14.34219363;0.0002557;86.3954;92.7203;84.4555;275.6932;2.5462E-5;9.1E-7;0;Iridium
14.34219417;0.0002556;86.3955;92.5161;84.2734;275.8753;2.5127E-5;9.0E-7;0;Iridium
14.34219466;0.0002551;86.3956;92.2828;84.0948;276.0539;2.4829E-5;8.9E-7;0;Iridium
14.34219551;0.0002549;86.3956;92.1078;83.8936;276.255;2.6118E-5;9.3E-7;0;Iridium
14.3421964;0.0002548;86.3957;91.8744;83.8199;276.3287;2.6882E-5;9.5E-7;0;Iridium
14.3421968;0.0002546;86.3957;91.6994;83.6052;276.5434;2.4911E-5;9.0E-7;0;Iridium
